H1 CPF 01  gfz 2022 03 06 01  5651 tandemx   
H2 1003001  6202 36605    2022 03 06 00 59 42 2022 03 11 00 00 42   120 1 1  0 0 0
H9
10 0 59644  20142.000000  0     725359.407    972940.119   6769584.417
10 0 59644  20262.000000  0    1628102.605   1037341.418   6601425.811
10 0 59644  20382.000000  0    2503265.974   1068079.451   6317238.641
10 0 59644  20502.000000  0    3334976.441   1065234.688   5921989.855
10 0 59644  20622.000000  0    4108117.085   1029743.753   5422594.315
10 0 59644  20742.000000  0    4808604.895    963368.575   4827799.122
10 0 59644  20862.000000  0    5423653.935    868646.217   4148038.016
10 0 59644  20982.000000  0    5942019.044    748820.971   3395252.375
10 0 59644  21102.000000  0    6354211.378    607759.889   2582681.632
10 0 59644  21222.000000  0    6652680.634    449852.550   1724629.419
10 0 59644  21342.000000  0    6831963.359    279898.600    836207.971
10 0 59644  21462.000000  0    6888788.460    102985.324    -66935.145
10 0 59644  21582.000000  0    6822140.184    -75641.953   -968901.365
10 0 59644  21702.000000  0    6633274.352   -250712.968  -1853830.249
10 0 59644  21822.000000  0    6325688.745   -417065.551  -2706186.371
10 0 59644  21942.000000  0    5905049.082   -569775.696  -3511037.294
10 0 59644  22062.000000  0    5379073.115   -704280.905  -4254317.774
10 0 59644  22182.000000  0    4757375.724   -816493.351  -4923074.146
10 0 59644  22302.000000  0    4051281.201   -902900.433  -5505684.307
10 0 59644  22422.000000  0    3273607.229   -960651.936  -5992051.730
10 0 59644  22542.000000  0    2438424.510   -987631.504  -6373770.059
10 0 59644  22662.000000  0    1560798.506   -982509.716  -6644256.661
10 0 59644  22782.000000  0     656518.359   -944780.088  -6798855.094
10 0 59644  22902.000000  0    -258183.584   -874777.044  -6834907.120
10 0 59644  23022.000000  0   -1166916.965   -773674.796  -6751792.706
10 0 59644  23142.000000  0   -2053420.064   -643468.116  -6550940.041
10 0 59644  23262.000000  0   -2901844.428   -486934.441  -6235802.648
10 0 59644  23382.000000  0   -3697031.283   -307578.695  -5811806.104
10 0 59644  23502.000000  0   -4424780.284   -109560.919  -5286265.906
10 0 59644  23622.000000  0   -5072104.889    102392.164  -4668271.926
10 0 59644  23742.000000  0   -5627469.147    323089.638  -3968543.533
10 0 59644  23862.000000  0   -6081003.504    546992.787  -3199254.269
10 0 59644  23982.000000  0   -6424692.361    768342.037  -2373827.366
10 0 59644  24102.000000  0   -6652528.617    981292.322  -1506705.063
10 0 59644  24222.000000  0   -6760632.309   1180053.155   -613096.227
10 0 59644  24342.000000  0   -6747327.757   1359030.065    291296.436
10 0 59644  24462.000000  0   -6613174.600   1512963.475   1190558.961
10 0 59644  24582.000000  0   -6360956.266   1637062.538   2068853.919
10 0 59644  24702.000000  0   -5995623.334   1727129.700   2910708.758
10 0 59644  24822.000000  0   -5524192.541   1779672.205   3701297.269
10 0 59644  24942.000000  0   -4955604.068   1791997.754   4426706.781
10 0 59644  25062.000000  0   -4300542.608   1762292.471   5074185.346
10 0 59644  25182.000000  0   -3571227.580   1689679.523   5632365.189
10 0 59644  25302.000000  0   -2781177.420   1574257.188   6091460.151
10 0 59644  25422.000000  0   -1944951.048   1417115.997   6443433.914
10 0 59644  25542.000000  0   -1077872.855   1220333.432   6682134.257
10 0 59644  25662.000000  0    -195748.904    986947.442   6803393.322
10 0 59644  25782.000000  0     685421.040    720909.372   6805095.264
10 0 59644  25902.000000  0    1549732.677    427016.811   6687210.719
10 0 59644  26022.000000  0    2381662.972    110827.680   6451797.392
10 0 59644  26142.000000  0    3166348.571   -221443.831   6102967.588
10 0 59644  26262.000000  0    3889853.536   -563047.838   5646821.076
10 0 59644  26382.000000  0    4539420.417   -906833.661   5091343.714
10 0 59644  26502.000000  0    5103700.958  -1245397.222   4446273.921
10 0 59644  26622.000000  0    5572962.426  -1571237.328   3722936.737
10 0 59644  26742.000000  0    5939264.765  -1876918.567   2934047.750
10 0 59644  26862.000000  0    6196604.204  -2155236.930   2093489.325
10 0 59644  26982.000000  0    6341019.016  -2399383.886   1216063.434
10 0 59644  27102.000000  0    6370655.712  -2603104.882    317225.346
10 0 59644  27222.000000  0    6285792.317  -2760848.491   -587196.876
10 0 59644  27342.000000  0    6088818.921  -2867901.709  -1481290.364
10 0 59644  27462.000000  0    5784173.952  -2920508.353  -2349346.560
10 0 59644  27582.000000  0    5378240.293  -2915966.954  -3176143.437
10 0 59644  27702.000000  0    4879204.445  -2852706.345  -3947216.038
10 0 59644  27822.000000  0    4296882.859  -2730338.298  -4649109.703
10 0 59644  27942.000000  0    3642518.950  -2549685.310  -5269612.091
10 0 59644  28062.000000  0    2928556.664  -2312782.948  -5797957.629
10 0 59644  28182.000000  0    2168399.176  -2022858.550  -6225003.357
10 0 59644  28302.000000  0    1376155.547  -1684286.834  -6543377.635
10 0 59644  28422.000000  0     566378.065  -1302521.679  -6747596.711
10 0 59644  28542.000000  0    -246201.882   -884007.869  -6834148.666
10 0 59644  28662.000000  0   -1046936.138   -436073.584  -6801546.536
10 0 59644  28782.000000  0   -1821517.467     33194.934  -6650351.127
10 0 59644  28902.000000  0   -2556229.315    515095.827  -6383161.513
10 0 59644  29022.000000  0   -3238182.908   1000468.143  -6004575.067
10 0 59644  29142.000000  0   -3855540.362   1479861.206  -5521117.771
10 0 59644  29262.000000  0   -4397721.875   1943714.121  -4941143.346
10 0 59644  29382.000000  0   -4855591.932   2382544.199  -4274700.668
10 0 59644  29502.000000  0   -5221620.214   2787139.288  -3533369.443
10 0 59644  29622.000000  0   -5490014.211   3148749.512  -2730068.090
10 0 59644  29742.000000  0   -5656821.526   3459276.175  -1878834.743
10 0 59644  29862.000000  0   -5719997.122   3711452.641   -994583.492
10 0 59644  29982.000000  0   -5679433.078   3899011.512    -92840.490
10 0 59644  30102.000000  0   -5536950.343   4016834.814    810534.337
10 0 59644  30222.000000  0   -5296250.446   4061081.793   1699635.773
10 0 59644  30342.000000  0   -4962827.713   4029290.496   2558802.479
10 0 59644  30462.000000  0   -4543846.505   3920451.989   3372900.638
10 0 59644  30582.000000  0   -4047985.806   3735054.857   4127598.123
10 0 59644  30702.000000  0   -3485254.967   3475097.614   4809620.946
10 0 59644  30822.000000  0   -2866786.288   3144071.246   5406988.257
10 0 59644  30942.000000  0   -2204608.363   2746911.033   5909221.393
10 0 59644  31062.000000  0   -1511406.817   2289919.658   6307523.959
10 0 59644  31182.000000  0    -800276.494   1780662.875   6594929.611
10 0 59644  31302.000000  0     -84473.188   1227841.275   6766416.326
10 0 59644  31422.000000  0     622833.189    641139.786   6818989.534
10 0 59644  31542.000000  0    1308800.392     31057.762   6751730.643
10 0 59644  31662.000000  0    1961145.879   -591278.116   6565812.471
10 0 59644  31782.000000  0    2568366.252  -1214316.417   6264480.663
10 0 59644  31902.000000  0    3119941.043  -1826294.468   5853001.334
10 0 59644  32022.000000  0    3606518.197  -2415460.947   5338574.558
10 0 59644  32142.000000  0    4020076.619  -2970302.414   4730213.907
10 0 59644  32262.000000  0    4354063.440  -3479770.854   4038594.216
10 0 59644  32382.000000  0    4603503.252  -3933507.524   3275868.040
10 0 59644  32502.000000  0    4765077.141  -4322057.833   2455453.348
10 0 59644  32622.000000  0    4837168.626  -4637071.470   1591794.806
10 0 59644  32742.000000  0    4819874.351  -4871483.059    700104.604
10 0 59644  32862.000000  0    4714979.899  -5019669.579   -203912.431
10 0 59644  32982.000000  0    4525901.254  -5077579.283  -1104344.135
10 0 59644  33102.000000  0    4257594.230  -5042829.012  -1985358.409
10 0 59644  33222.000000  0    3916431.726  -4914767.554  -2831491.291
10 0 59644  33342.000000  0    3510054.479  -4694503.437  -3627923.275
10 0 59644  33462.000000  0    3047198.717  -4384897.526  -4360740.666
10 0 59644  33582.000000  0    2537505.865  -3990520.952  -5017177.667
10 0 59644  33702.000000  0    1991318.202  -3517578.945  -5585832.587
10 0 59644  33822.000000  0    1419467.864  -2973805.829  -6056855.527
10 0 59644  33942.000000  0     833062.394  -2368333.697  -6422108.756
10 0 59644  34062.000000  0     243270.067  -1711535.108  -6675297.007
10 0 59644  34182.000000  0    -338889.685  -1014843.476  -6812065.076
10 0 59644  34302.000000  0    -902746.776   -290555.463  -6830063.793
10 0 59644  34422.000000  0   -1438170.946    448381.567  -6728985.407
10 0 59644  34542.000000  0   -1935749.594   1188594.810  -6510567.701
10 0 59644  34662.000000  0   -2386949.166   1916521.931  -6178567.350
10 0 59644  34782.000000  0   -2784259.448   2618653.336  -5738702.898
10 0 59644  34902.000000  0   -3121318.990   3281779.623  -5198567.100
10 0 59644  35022.000000  0   -3393019.692   3893239.672  -4567507.977
10 0 59644  35142.000000  0   -3595588.485   4441165.006  -3856477.617
10 0 59644  35262.000000  0   -3726642.258   4914714.281  -3077850.358
10 0 59644  35382.000000  0   -3785215.594   5304293.038  -2245214.858
10 0 59644  35502.000000  0   -3771762.259   5601755.420  -1373141.546
10 0 59644  35622.000000  0   -3688127.787   5800582.678   -476927.359
10 0 59644  35742.000000  0   -3537492.718   5896030.248    427676.686
10 0 59644  35862.000000  0   -3324289.880   5885241.734   1324750.968
10 0 59644  35982.000000  0   -3054094.320   5767325.491   2198495.853
10 0 59644  36102.000000  0   -2733488.562   5543389.933   3033521.014
10 0 59644  36222.000000  0   -2369908.902   5216537.065   3815123.688
10 0 59644  36342.000000  0   -1971476.906   4791816.982   4529552.267
10 0 59644  36462.000000  0   -1546820.079   4276143.943   5164250.576
10 0 59644  36582.000000  0   -1104885.359   3678176.277   5708078.776
99
